start=new Date('2023-04-04T00:00:00.000Z').valueOf();
sats=[{"DECAY_DATE":null,"MEAN_MOTION":"15.08844563","EPHEMERIS_TYPE":"0","APOAPSIS":"540.594","CLASSIFICATION_TYPE":"U","PERIOD":"95.437","TLE_LINE1":"1 54172U 22141R   23093.82386835  .00003612  00000-0  24490-3 0  9993","OBJECT_NAME":"STARLINK-5117","LAUNCH_DATE":"2022-10-28","MEAN_ANOMALY":"267.8247","RA_OF_ASC_NODE":"131.3967","OBJECT_ID":"2022-141R","MEAN_ELEMENT_THEORY":"SGP4","NORAD_CAT_ID":"54172","MEAN_MOTION_DOT":"0.00003612","EPOCH":"2023-04-03T19:46:22.225440","ARG_OF_PERICENTER":"92.2887","FILE":"3879321","GP_ID":"229427471","RCS_SIZE":"LARGE","CENTER_NAME":"EARTH","OBJECT_TYPE":"PAYLOAD","TLE_LINE2":"2 54172  53.2158 131.3967 0001247  92.2887 267.8247 15.08844563 24191","SEMIMAJOR_AXIS":"6917.866","MEAN_MOTION_DDOT":"0.0000000000000","SITE":"AFWTR","REF_FRAME":"TEME","ELEMENT_SET_NO":"999","PERIAPSIS":"538.869","TIME_SYSTEM":"UTC","BSTAR":"0.00024490000000","COUNTRY_CODE":"US","ECCENTRICITY":"0.00012470","INCLINATION":"53.2158","REV_AT_EPOCH":"2419"},{"PERIOD":"95.437","CLASSIFICATION_TYPE":"U","DECAY_DATE":null,"APOAPSIS":"540.720","MEAN_MOTION":"15.08840931","EPHEMERIS_TYPE":"0","OBJECT_ID":"2022-141S","RA_OF_ASC_NODE":"132.3569","MEAN_ELEMENT_THEORY":"SGP4","OBJECT_NAME":"STARLINK-5242","TLE_LINE1":"1 54173U 22141S   23093.52206194  .00002059  00000-0  14741-3 0  9992","LAUNCH_DATE":"2022-10-28","MEAN_ANOMALY":"270.0813","NORAD_CAT_ID":"54173","RCS_SIZE":"LARGE","EPOCH":"2023-04-03T12:31:46.151616","MEAN_MOTION_DOT":"0.00002059","GP_ID":"229393827","ARG_OF_PERICENTER":"90.0341","FILE":"3879059","CENTER_NAME":"EARTH","TLE_LINE2":"2 54173  53.2153 132.3569 0001413  90.0341 270.0813 15.08840931 24158","OBJECT_TYPE":"PAYLOAD","SEMIMAJOR_AXIS":"6917.878","ELEMENT_SET_NO":"999","PERIAPSIS":"538.765","SITE":"AFWTR","MEAN_MOTION_DDOT":"0.0000000000000","REF_FRAME":"TEME","COUNTRY_CODE":"US","TIME_SYSTEM":"UTC","BSTAR":"0.00014741000000","INCLINATION":"53.2153","REV_AT_EPOCH":"2415","ECCENTRICITY":"0.00014130"},{"MEAN_MOTION_DOT":"-0.00897453","EPOCH":"2023-04-03T22:00:00.999936","FILE":"3879321","ARG_OF_PERICENTER":"93.7072","GP_ID":"229425969","RCS_SIZE":"LARGE","NORAD_CAT_ID":"54174","TLE_LINE1":"1 54174U 22141T   23093.91667824 -.00897453  00000-0 -10223-1 0  9998","OBJECT_NAME":"STARLINK-5248","LAUNCH_DATE":"2022-10-28","MEAN_ANOMALY":"251.9408","RA_OF_ASC_NODE":"82.0152","OBJECT_ID":"2022-141T","MEAN_ELEMENT_THEORY":"SGP4","DECAY_DATE":null,"MEAN_MOTION":"15.64031678","EPHEMERIS_TYPE":"0","APOAPSIS":"376.786","PERIOD":"92.070","CLASSIFICATION_TYPE":"U","ECCENTRICITY":"0.00011230","INCLINATION":"53.2130","REV_AT_EPOCH":"130","TIME_SYSTEM":"UTC","BSTAR":"-0.01022300000000","COUNTRY_CODE":"US","MEAN_MOTION_DDOT":"0.0000000000000","SITE":"AFWTR","REF_FRAME":"TEME","ELEMENT_SET_NO":"999","PERIAPSIS":"375.269","CENTER_NAME":"EARTH","OBJECT_TYPE":"PAYLOAD","TLE_LINE2":"2 54174  53.2130  82.0152 0001123  93.7072 251.9408 15.64031678  1304","SEMIMAJOR_AXIS":"6754.162"},{"NORAD_CAT_ID":"54175","ARG_OF_PERICENTER":"85.9743","FILE":"3879321","GP_ID":"229426720","MEAN_MOTION_DOT":"0.00006167","EPOCH":"2023-04-03T19:51:40.235328","RCS_SIZE":"LARGE","EPHEMERIS_TYPE":"0","MEAN_MOTION":"15.08845918","APOAPSIS":"540.605","DECAY_DATE":null,"CLASSIFICATION_TYPE":"U","PERIOD":"95.437","LAUNCH_DATE":"2022-10-28","MEAN_ANOMALY":"274.1394","TLE_LINE1":"1 54175U 22141U   23093.82754902  .00006167  00000-0  40518-3 0  9997","OBJECT_NAME":"STARLINK-5256","MEAN_ELEMENT_THEORY":"SGP4","RA_OF_ASC_NODE":"131.4171","OBJECT_ID":"2022-141U","BSTAR":"0.00040518000000","TIME_SYSTEM":"UTC","COUNTRY_CODE":"US","ECCENTRICITY":"0.00012690","REV_AT_EPOCH":"2419","INCLINATION":"53.2157","SEMIMAJOR_AXIS":"6917.862","TLE_LINE2":"2 54175  53.2157 131.4171 0001269  85.9743 274.1394 15.08845918 24194","OBJECT_TYPE":"PAYLOAD","CENTER_NAME":"EARTH","REF_FRAME":"TEME","MEAN_MOTION_DDOT":"0.0000000000000","SITE":"AFWTR","PERIAPSIS":"538.849","ELEMENT_SET_NO":"999"},{"NORAD_CAT_ID":"54176","RCS_SIZE":"LARGE","GP_ID":"229426971","ARG_OF_PERICENTER":"100.8372","FILE":"3879321","EPOCH":"2023-04-03T19:30:27.082080","MEAN_MOTION_DOT":"0.00002334","CLASSIFICATION_TYPE":"U","PERIOD":"95.437","APOAPSIS":"540.652","EPHEMERIS_TYPE":"0","MEAN_MOTION":"15.08843090","DECAY_DATE":null,"MEAN_ELEMENT_THEORY":"SGP4","OBJECT_ID":"2022-141V","RA_OF_ASC_NODE":"131.3320","MEAN_ANOMALY":"259.2770","LAUNCH_DATE":"2022-10-28","OBJECT_NAME":"STARLINK-5154","TLE_LINE1":"1 54176U 22141V   23093.81281345  .00002334  00000-0  16466-3 0  9990","COUNTRY_CODE":"US","BSTAR":"0.00016466000000","TIME_SYSTEM":"UTC","REV_AT_EPOCH":"2419","INCLINATION":"53.2163","ECCENTRICITY":"0.00013240","OBJECT_TYPE":"PAYLOAD","TLE_LINE2":"2 54176  53.2163 131.3320 0001324 100.8372 259.2770 15.08843090 24195","SEMIMAJOR_AXIS":"6917.871","CENTER_NAME":"EARTH","PERIAPSIS":"538.820","ELEMENT_SET_NO":"999","REF_FRAME":"TEME","SITE":"AFWTR","MEAN_MOTION_DDOT":"0.0000000000000"},{"EPHEMERIS_TYPE":"0","MEAN_MOTION":"15.08843908","APOAPSIS":"540.744","DECAY_DATE":null,"PERIOD":"95.437","CLASSIFICATION_TYPE":"U","MEAN_ANOMALY":"271.9633","LAUNCH_DATE":"2022-10-28","TLE_LINE1":"1 54177U 22141W   23093.82018190  .00001404  00000-0  10625-3 0  9996","OBJECT_NAME":"STARLINK-5186","MEAN_ELEMENT_THEORY":"SGP4","RA_OF_ASC_NODE":"131.3698","OBJECT_ID":"2022-141W","NORAD_CAT_ID":"54177","FILE":"3879321","ARG_OF_PERICENTER":"88.1526","GP_ID":"229427716","MEAN_MOTION_DOT":"0.00001404","EPOCH":"2023-04-03T19:41:03.716160","RCS_SIZE":"LARGE","TLE_LINE2":"2 54177  53.2147 131.3698 0001461  88.1526 271.9633 15.08843908 24194","SEMIMAJOR_AXIS":"6917.868","OBJECT_TYPE":"PAYLOAD","CENTER_NAME":"EARTH","REF_FRAME":"TEME","MEAN_MOTION_DDOT":"0.0000000000000","SITE":"AFWTR","PERIAPSIS":"538.723","ELEMENT_SET_NO":"999","BSTAR":"0.00010625000000","TIME_SYSTEM":"UTC","COUNTRY_CODE":"US","ECCENTRICITY":"0.00014610","REV_AT_EPOCH":"2419","INCLINATION":"53.2147"},{"CENTER_NAME":"EARTH","TLE_LINE2":"2 54178  53.2167 131.2860 0001360  91.3996 268.7152 15.08844234 24195","SEMIMAJOR_AXIS":"6917.867","OBJECT_TYPE":"PAYLOAD","SITE":"AFWTR","MEAN_MOTION_DDOT":"0.0000000000000","REF_FRAME":"TEME","ELEMENT_SET_NO":"999","PERIAPSIS":"538.792","TIME_SYSTEM":"UTC","BSTAR":"0.00020547000000","COUNTRY_CODE":"US","ECCENTRICITY":"0.00013600","INCLINATION":"53.2167","REV_AT_EPOCH":"2419","DECAY_DATE":null,"APOAPSIS":"540.673","MEAN_MOTION":"15.08844234","EPHEMERIS_TYPE":"0","CLASSIFICATION_TYPE":"U","PERIOD":"95.437","OBJECT_NAME":"STARLINK-5164","TLE_LINE1":"1 54178U 22141X   23093.81008086  .00002984  00000-0  20547-3 0  9997","MEAN_ANOMALY":"268.7152","LAUNCH_DATE":"2022-10-28","OBJECT_ID":"2022-141X","RA_OF_ASC_NODE":"131.2860","MEAN_ELEMENT_THEORY":"SGP4","NORAD_CAT_ID":"54178","EPOCH":"2023-04-03T19:26:30.986304","MEAN_MOTION_DOT":"0.00002984","GP_ID":"229426470","ARG_OF_PERICENTER":"91.3996","FILE":"3879321","RCS_SIZE":"LARGE"},{"NORAD_CAT_ID":"54179","RCS_SIZE":"LARGE","FILE":"3879321","ARG_OF_PERICENTER":"85.8224","GP_ID":"229426220","MEAN_MOTION_DOT":"0.00002040","EPOCH":"2023-04-03T19:35:45.522240","CLASSIFICATION_TYPE":"U","PERIOD":"95.437","MEAN_MOTION":"15.08842550","EPHEMERIS_TYPE":"0","APOAPSIS":"540.821","DECAY_DATE":null,"MEAN_ELEMENT_THEORY":"SGP4","RA_OF_ASC_NODE":"131.3482","OBJECT_ID":"2022-141Y","MEAN_ANOMALY":"274.2947","LAUNCH_DATE":"2022-10-28","TLE_LINE1":"1 54179U 22141Y   23093.81649910  .00002040  00000-0  14623-3 0  9996","OBJECT_NAME":"STARLINK-5122","COUNTRY_CODE":"US","BSTAR":"0.00014623000000","TIME_SYSTEM":"UTC","REV_AT_EPOCH":"2419","INCLINATION":"53.2180","ECCENTRICITY":"0.00015660","SEMIMAJOR_AXIS":"6917.873","TLE_LINE2":"2 54179  53.2180 131.3482 0001566  85.8224 274.2947 15.08842550 24195","OBJECT_TYPE":"PAYLOAD","CENTER_NAME":"EARTH","PERIAPSIS":"538.654","ELEMENT_SET_NO":"999","REF_FRAME":"TEME","MEAN_MOTION_DDOT":"0.0000000000000","SITE":"AFWTR"},{"SEMIMAJOR_AXIS":"6917.871","TLE_LINE2":"2 54180  53.2173 131.2153 0001288  95.9078 264.2061 15.08843168 24195","OBJECT_TYPE":"PAYLOAD","CENTER_NAME":"EARTH","PERIAPSIS":"538.845","ELEMENT_SET_NO":"999","REF_FRAME":"TEME","MEAN_MOTION_DDOT":"0.0000000000000","SITE":"AFWTR","COUNTRY_CODE":"US","BSTAR":"0.00015527000000","TIME_SYSTEM":"UTC","REV_AT_EPOCH":"2419","INCLINATION":"53.2173","ECCENTRICITY":"0.00012880","PERIOD":"95.437","CLASSIFICATION_TYPE":"U","MEAN_MOTION":"15.08843168","EPHEMERIS_TYPE":"0","APOAPSIS":"540.627","DECAY_DATE":null,"MEAN_ELEMENT_THEORY":"SGP4","RA_OF_ASC_NODE":"131.2153","OBJECT_ID":"2022-141Z","MEAN_ANOMALY":"264.2061","LAUNCH_DATE":"2022-10-28","TLE_LINE1":"1 54180U 22141Z   23093.79438960  .00002184  00000-0  15527-3 0  9999","OBJECT_NAME":"STARLINK-5228","NORAD_CAT_ID":"54180","RCS_SIZE":"LARGE","ARG_OF_PERICENTER":"95.9078","FILE":"3879321","GP_ID":"229427472","MEAN_MOTION_DOT":"0.00002184","EPOCH":"2023-04-03T19:03:55.261440"},{"TIME_SYSTEM":"UTC","BSTAR":"0.00069666000000","COUNTRY_CODE":"US","ECCENTRICITY":"0.00007950","INCLINATION":"53.2163","REV_AT_EPOCH":"2419","CENTER_NAME":"EARTH","TLE_LINE2":"2 54181  53.2163 131.2836 0000795  90.9539 269.1545 15.08840640 24195","OBJECT_TYPE":"PAYLOAD","SEMIMAJOR_AXIS":"6917.878","MEAN_MOTION_DDOT":"0.0000000000000","SITE":"AFWTR","REF_FRAME":"TEME","ELEMENT_SET_NO":"999","PERIAPSIS":"539.193","NORAD_CAT_ID":"54181","MEAN_MOTION_DOT":"0.00010817","EPOCH":"2023-04-03T19:19:50.152512","ARG_OF_PERICENTER":"90.9539","FILE":"3879321","GP_ID":"229427216","RCS_SIZE":"LARGE","DECAY_DATE":null,"MEAN_MOTION":"15.08840640","EPHEMERIS_TYPE":"0","APOAPSIS":"540.293","PERIOD":"95.438","CLASSIFICATION_TYPE":"U","TLE_LINE1":"1 54181U 22141AA  23093.80544158  .00010817  00000-0  69666-3 0  9994","OBJECT_NAME":"STARLINK-5227","LAUNCH_DATE":"2022-10-28","MEAN_ANOMALY":"269.1545","RA_OF_ASC_NODE":"131.2836","OBJECT_ID":"2022-141AA","MEAN_ELEMENT_THEORY":"SGP4"}];
